{
  "type": "FeatureCollection",
  "features": [
    {
      "type": "Feature",
      "properties": {
        "type": "Repeater",
        "name": "AE4S 146.655",
        "site": "AE4S Site",
        "band": "VHF",
        "score_prefix": "AE4S_146.655"
      },
      "geometry": {
        "type": "Point",
        "coordinates": [
          -84.2,
          30.44
        ]
      }
    },
    {
      "type": "Feature",
      "properties": {
        "type": "Repeater",
        "name": "AE4S 443.950",
        "site": "AE4S Site",
        "band": "UHF",
        "score_prefix": "AE4S_443.950"
      },
      "geometry": {
        "type": "Point",
        "coordinates": [
          -84.2,
          30.44
        ]
      }
    },
    {
      "type": "Feature",
      "properties": {
        "type": "Repeater",
        "name": "K4TLH 146.910",
        "site": "K4TLH 146.910 Site",
        "band": "VHF",
        "score_prefix": "K4TLH_146.910"
      },
      "geometry": {
        "type": "Point",
        "coordinates": [
          -84.272,
          30.432
        ]
      }
    },
    {
      "type": "Feature",
      "properties": {
        "type": "Repeater",
        "name": "K4TLH 147.030",
        "site": "K4TLH 147.030 Site",
        "band": "VHF",
        "score_prefix": "K4TLH_147.030"
      },
      "geometry": {
        "type": "Point",
        "coordinates": [
          -84.23,
          30.58
        ]
      }
    },
    {
      "type": "Feature",
      "properties": {
        "type": "Repeater",
        "name": "K4TLH 444.800",
        "site": "K4TLH Site",
        "band": "UHF",
        "score_prefix": "K4TLH_444.800"
      },
      "geometry": {
        "type": "Point",
        "coordinates": [
          -84.24,
          30.45
        ]
      }
    },
    {
      "type": "Feature",
      "properties": {
        "type": "Mobile Check-In",
        "mobile_unit": "AI4KA",
        "stop": "1",
        "location": "US319@Kerry Forrest Pkwy",
        "scores": [
          {
            "repeater": "AE4S 146.655",
            "band": "VHF",
            "received": 3.0,
            "sent": 3.0,
            "average": 3.0
          },
          {
            "repeater": "AE4S 443.950",
            "band": "UHF",
            "received": 3.0,
            "sent": 3.0,
            "average": 3.0
          },
          {
            "repeater": "K4TLH 146.910",
            "band": "VHF",
            "received": 3.0,
            "sent": 3.0,
            "average": 3.0
          },
          {
            "repeater": "K4TLH 147.030",
            "band": "VHF",
            "received": 3.0,
            "sent": 3.0,
            "average": 3.0
          },
          {
            "repeater": "K4TLH 444.800",
            "band": "UHF",
            "received": 3.0,
            "sent": 3.0,
            "average": 3.0
          }
        ]
      },
      "geometry": {
        "type": "Point",
        "coordinates": [
          -84.22808,
          30.54223
        ]
      }
    },
    {
      "type": "Feature",
      "properties": {
        "type": "Signal Connector",
        "mobile_unit": "AI4KA",
        "stop": "1",
        "repeater": "AE4S 146.655",
        "band": "VHF",
        "received": 3.0,
        "sent": 3.0,
        "average": 3.0,
        "name": "AI4KA Stop 1 to AE4S 146.655"
      },
      "geometry": {
        "type": "LineString",
        "coordinates": [
          [
            -84.2,
            30.44
          ],
          [
            -84.22808,
            30.54223
          ]
        ]
      }
    },
    {
      "type": "Feature",
      "properties": {
        "type": "Signal Connector",
        "mobile_unit": "AI4KA",
        "stop": "1",
        "repeater": "AE4S 443.950",
        "band": "UHF",
        "received": 3.0,
        "sent": 3.0,
        "average": 3.0,
        "name": "AI4KA Stop 1 to AE4S 443.950"
      },
      "geometry": {
        "type": "LineString",
        "coordinates": [
          [
            -84.2,
            30.44
          ],
          [
            -84.22808,
            30.54223
          ]
        ]
      }
    },
    {
      "type": "Feature",
      "properties": {
        "type": "Signal Connector",
        "mobile_unit": "AI4KA",
        "stop": "1",
        "repeater": "K4TLH 146.910",
        "band": "VHF",
        "received": 3.0,
        "sent": 3.0,
        "average": 3.0,
        "name": "AI4KA Stop 1 to K4TLH 146.910"
      },
      "geometry": {
        "type": "LineString",
        "coordinates": [
          [
            -84.272,
            30.432
          ],
          [
            -84.22808,
            30.54223
          ]
        ]
      }
    },
    {
      "type": "Feature",
      "properties": {
        "type": "Signal Connector",
        "mobile_unit": "AI4KA",
        "stop": "1",
        "repeater": "K4TLH 147.030",
        "band": "VHF",
        "received": 3.0,
        "sent": 3.0,
        "average": 3.0,
        "name": "AI4KA Stop 1 to K4TLH 147.030"
      },
      "geometry": {
        "type": "LineString",
        "coordinates": [
          [
            -84.23,
            30.58
          ],
          [
            -84.22808,
            30.54223
          ]
        ]
      }
    },
    {
      "type": "Feature",
      "properties": {
        "type": "Signal Connector",
        "mobile_unit": "AI4KA",
        "stop": "1",
        "repeater": "K4TLH 444.800",
        "band": "UHF",
        "received": 3.0,
        "sent": 3.0,
        "average": 3.0,
        "name": "AI4KA Stop 1 to K4TLH 444.800"
      },
      "geometry": {
        "type": "LineString",
        "coordinates": [
          [
            -84.24,
            30.45
          ],
          [
            -84.22808,
            30.54223
          ]
        ]
      }
    },
    {
      "type": "Feature",
      "properties": {
        "type": "NCS",
        "name": "W9ARO"
      },
      "geometry": {
        "type": "Point",
        "coordinates": [
          -84.427592,
          30.435573
        ]
      }
    },
    {
      "type": "Feature",
      "properties": {
        "type": "NCS Repeater Link",
        "name": "W9ARO to AE4S 146.655",
        "repeater": "AE4S 146.655",
        "band": "VHF"
      },
      "geometry": {
        "type": "LineString",
        "coordinates": [
          [
            -84.427592,
            30.435573
          ],
          [
            -84.2,
            30.44
          ]
        ]
      }
    },
    {
      "type": "Feature",
      "properties": {
        "type": "NCS Repeater Link",
        "name": "W9ARO to AE4S 443.950",
        "repeater": "AE4S 443.950",
        "band": "UHF"
      },
      "geometry": {
        "type": "LineString",
        "coordinates": [
          [
            -84.427592,
            30.435573
          ],
          [
            -84.2,
            30.44
          ]
        ]
      }
    },
    {
      "type": "Feature",
      "properties": {
        "type": "NCS Repeater Link",
        "name": "W9ARO to K4TLH 146.910",
        "repeater": "K4TLH 146.910",
        "band": "VHF"
      },
      "geometry": {
        "type": "LineString",
        "coordinates": [
          [
            -84.427592,
            30.435573
          ],
          [
            -84.272,
            30.432
          ]
        ]
      }
    },
    {
      "type": "Feature",
      "properties": {
        "type": "NCS Repeater Link",
        "name": "W9ARO to K4TLH 147.030",
        "repeater": "K4TLH 147.030",
        "band": "VHF"
      },
      "geometry": {
        "type": "LineString",
        "coordinates": [
          [
            -84.427592,
            30.435573
          ],
          [
            -84.23,
            30.58
          ]
        ]
      }
    },
    {
      "type": "Feature",
      "properties": {
        "type": "NCS Repeater Link",
        "name": "W9ARO to K4TLH 444.800",
        "repeater": "K4TLH 444.800",
        "band": "UHF"
      },
      "geometry": {
        "type": "LineString",
        "coordinates": [
          [
            -84.427592,
            30.435573
          ],
          [
            -84.24,
            30.45
          ]
        ]
      }
    },
    {
      "type": "Feature",
      "properties": {
        "type": "Mobile Check-In",
        "mobile_unit": "AI4KA",
        "stop": "2",
        "location": "US319@SR93/Beachton GA",
        "scores": [
          {
            "repeater": "AE4S 146.655",
            "band": "VHF",
            "received": 3.0,
            "sent": 3.0,
            "average": 3.0
          },
          {
            "repeater": "AE4S 443.950",
            "band": "UHF",
            "received": 3.0,
            "sent": 2.0,
            "average": 2.5
          },
          {
            "repeater": "K4TLH 146.910",
            "band": "VHF",
            "received": 2.0,
            "sent": 1.0,
            "average": 1.5
          },
          {
            "repeater": "K4TLH 147.030",
            "band": "VHF",
            "received": 3.0,
            "sent": 3.0,
            "average": 3.0
          },
          {
            "repeater": "K4TLH 444.800",
            "band": "UHF",
            "received": 3.0,
            "sent": 2.0,
            "average": 2.5
          }
        ]
      },
      "geometry": {
        "type": "Point",
        "coordinates": [
          -84.14555,
          30.70264
        ]
      }
    },
    {
      "type": "Feature",
      "properties": {
        "type": "Signal Connector",
        "mobile_unit": "AI4KA",
        "stop": "2",
        "repeater": "AE4S 146.655",
        "band": "VHF",
        "received": 3.0,
        "sent": 3.0,
        "average": 3.0,
        "name": "AI4KA Stop 2 to AE4S 146.655"
      },
      "geometry": {
        "type": "LineString",
        "coordinates": [
          [
            -84.2,
            30.44
          ],
          [
            -84.14555,
            30.70264
          ]
        ]
      }
    },
    {
      "type": "Feature",
      "properties": {
        "type": "Signal Connector",
        "mobile_unit": "AI4KA",
        "stop": "2",
        "repeater": "AE4S 443.950",
        "band": "UHF",
        "received": 3.0,
        "sent": 2.0,
        "average": 2.5,
        "name": "AI4KA Stop 2 to AE4S 443.950"
      },
      "geometry": {
        "type": "LineString",
        "coordinates": [
          [
            -84.2,
            30.44
          ],
          [
            -84.14555,
            30.70264
          ]
        ]
      }
    },
    {
      "type": "Feature",
      "properties": {
        "type": "Signal Connector",
        "mobile_unit": "AI4KA",
        "stop": "2",
        "repeater": "K4TLH 146.910",
        "band": "VHF",
        "received": 2.0,
        "sent": 1.0,
        "average": 1.5,
        "name": "AI4KA Stop 2 to K4TLH 146.910"
      },
      "geometry": {
        "type": "LineString",
        "coordinates": [
          [
            -84.272,
            30.432
          ],
          [
            -84.14555,
            30.70264
          ]
        ]
      }
    },
    {
      "type": "Feature",
      "properties": {
        "type": "Signal Connector",
        "mobile_unit": "AI4KA",
        "stop": "2",
        "repeater": "K4TLH 147.030",
        "band": "VHF",
        "received": 3.0,
        "sent": 3.0,
        "average": 3.0,
        "name": "AI4KA Stop 2 to K4TLH 147.030"
      },
      "geometry": {
        "type": "LineString",
        "coordinates": [
          [
            -84.23,
            30.58
          ],
          [
            -84.14555,
            30.70264
          ]
        ]
      }
    },
    {
      "type": "Feature",
      "properties": {
        "type": "Signal Connector",
        "mobile_unit": "AI4KA",
        "stop": "2",
        "repeater": "K4TLH 444.800",
        "band": "UHF",
        "received": 3.0,
        "sent": 2.0,
        "average": 2.5,
        "name": "AI4KA Stop 2 to K4TLH 444.800"
      },
      "geometry": {
        "type": "LineString",
        "coordinates": [
          [
            -84.24,
            30.45
          ],
          [
            -84.14555,
            30.70264
          ]
        ]
      }
    },
    {
      "type": "Feature",
      "properties": {
        "type": "Mobile Check-In",
        "mobile_unit": "AI4KA",
        "stop": "3",
        "location": "Bark of Thomasville",
        "scores": [
          {
            "repeater": "AE4S 146.655",
            "band": "VHF",
            "received": 3.0,
            "sent": 3.0,
            "average": 3.0
          },
          {
            "repeater": "AE4S 443.950",
            "band": "UHF",
            "received": 3.0,
            "sent": 3.0,
            "average": 3.0
          },
          {
            "repeater": "K4TLH 146.910",
            "band": "VHF",
            "received": 3.0,
            "sent": 3.0,
            "average": 3.0
          },
          {
            "repeater": "K4TLH 147.030",
            "band": "VHF",
            "received": 3.0,
            "sent": 3.0,
            "average": 3.0
          },
          {
            "repeater": "K4TLH 444.800",
            "band": "UHF",
            "received": 2.0,
            "sent": 3.0,
            "average": 2.5
          }
        ]
      },
      "geometry": {
        "type": "Point",
        "coordinates": [
          -84.02489,
          30.79775
        ]
      }
    },
    {
      "type": "Feature",
      "properties": {
        "type": "Signal Connector",
        "mobile_unit": "AI4KA",
        "stop": "3",
        "repeater": "AE4S 146.655",
        "band": "VHF",
        "received": 3.0,
        "sent": 3.0,
        "average": 3.0,
        "name": "AI4KA Stop 3 to AE4S 146.655"
      },
      "geometry": {
        "type": "LineString",
        "coordinates": [
          [
            -84.2,
            30.44
          ],
          [
            -84.02489,
            30.79775
          ]
        ]
      }
    },
    {
      "type": "Feature",
      "properties": {
        "type": "Signal Connector",
        "mobile_unit": "AI4KA",
        "stop": "3",
        "repeater": "AE4S 443.950",
        "band": "UHF",
        "received": 3.0,
        "sent": 3.0,
        "average": 3.0,
        "name": "AI4KA Stop 3 to AE4S 443.950"
      },
      "geometry": {
        "type": "LineString",
        "coordinates": [
          [
            -84.2,
            30.44
          ],
          [
            -84.02489,
            30.79775
          ]
        ]
      }
    },
    {
      "type": "Feature",
      "properties": {
        "type": "Signal Connector",
        "mobile_unit": "AI4KA",
        "stop": "3",
        "repeater": "K4TLH 146.910",
        "band": "VHF",
        "received": 3.0,
        "sent": 3.0,
        "average": 3.0,
        "name": "AI4KA Stop 3 to K4TLH 146.910"
      },
      "geometry": {
        "type": "LineString",
        "coordinates": [
          [
            -84.272,
            30.432
          ],
          [
            -84.02489,
            30.79775
          ]
        ]
      }
    },
    {
      "type": "Feature",
      "properties": {
        "type": "Signal Connector",
        "mobile_unit": "AI4KA",
        "stop": "3",
        "repeater": "K4TLH 147.030",
        "band": "VHF",
        "received": 3.0,
        "sent": 3.0,
        "average": 3.0,
        "name": "AI4KA Stop 3 to K4TLH 147.030"
      },
      "geometry": {
        "type": "LineString",
        "coordinates": [
          [
            -84.23,
            30.58
          ],
          [
            -84.02489,
            30.79775
          ]
        ]
      }
    },
    {
      "type": "Feature",
      "properties": {
        "type": "Signal Connector",
        "mobile_unit": "AI4KA",
        "stop": "3",
        "repeater": "K4TLH 444.800",
        "band": "UHF",
        "received": 2.0,
        "sent": 3.0,
        "average": 2.5,
        "name": "AI4KA Stop 3 to K4TLH 444.800"
      },
      "geometry": {
        "type": "LineString",
        "coordinates": [
          [
            -84.24,
            30.45
          ],
          [
            -84.02489,
            30.79775
          ]
        ]
      }
    },
    {
      "type": "Feature",
      "properties": {
        "type": "Mobile Check-In",
        "mobile_unit": "AI4KA",
        "stop": "4",
        "location": "US319@US19",
        "scores": [
          {
            "repeater": "AE4S 146.655",
            "band": "VHF",
            "received": 3.0,
            "sent": 3.0,
            "average": 3.0
          },
          {
            "repeater": "AE4S 443.950",
            "band": "UHF",
            "received": 0.0,
            "sent": 0.0,
            "average": 0.0
          },
          {
            "repeater": "K4TLH 146.910",
            "band": "VHF",
            "received": 0.0,
            "sent": 0.0,
            "average": 0.0
          },
          {
            "repeater": "K4TLH 147.030",
            "band": "VHF",
            "received": 3.0,
            "sent": 2.0,
            "average": 2.5
          },
          {
            "repeater": "K4TLH 444.800",
            "band": "UHF",
            "received": 0.0,
            "sent": 0.0,
            "average": 0.0
          }
        ]
      },
      "geometry": {
        "type": "Point",
        "coordinates": [
          -83.94639,
          30.86072
        ]
      }
    },
    {
      "type": "Feature",
      "properties": {
        "type": "Signal Connector",
        "mobile_unit": "AI4KA",
        "stop": "4",
        "repeater": "AE4S 146.655",
        "band": "VHF",
        "received": 3.0,
        "sent": 3.0,
        "average": 3.0,
        "name": "AI4KA Stop 4 to AE4S 146.655"
      },
      "geometry": {
        "type": "LineString",
        "coordinates": [
          [
            -84.2,
            30.44
          ],
          [
            -83.94639,
            30.86072
          ]
        ]
      }
    },
    {
      "type": "Feature",
      "properties": {
        "type": "Signal Connector",
        "mobile_unit": "AI4KA",
        "stop": "4",
        "repeater": "K4TLH 147.030",
        "band": "VHF",
        "received": 3.0,
        "sent": 2.0,
        "average": 2.5,
        "name": "AI4KA Stop 4 to K4TLH 147.030"
      },
      "geometry": {
        "type": "LineString",
        "coordinates": [
          [
            -84.23,
            30.58
          ],
          [
            -83.94639,
            30.86072
          ]
        ]
      }
    },
    {
      "type": "Feature",
      "properties": {
        "type": "Mobile Check-In",
        "mobile_unit": "KN4FCC",
        "stop": "1",
        "location": "I10@US27",
        "scores": [
          {
            "repeater": "AE4S 146.655",
            "band": "VHF",
            "received": 3.0,
            "sent": 3.0,
            "average": 3.0
          },
          {
            "repeater": "AE4S 443.950",
            "band": "UHF",
            "received": 3.0,
            "sent": 3.0,
            "average": 3.0
          },
          {
            "repeater": "K4TLH 146.910",
            "band": "VHF",
            "received": 3.0,
            "sent": 2.0,
            "average": 2.5
          },
          {
            "repeater": "K4TLH 147.030",
            "band": "VHF",
            "received": 3.0,
            "sent": 3.0,
            "average": 3.0
          },
          {
            "repeater": "K4TLH 444.800",
            "band": "UHF",
            "received": 0.0,
            "sent": 0.0,
            "average": 0.0
          }
        ]
      },
      "geometry": {
        "type": "Point",
        "coordinates": [
          -84.31111,
          30.48375
        ]
      }
    },
    {
      "type": "Feature",
      "properties": {
        "type": "Signal Connector",
        "mobile_unit": "KN4FCC",
        "stop": "1",
        "repeater": "AE4S 146.655",
        "band": "VHF",
        "received": 3.0,
        "sent": 3.0,
        "average": 3.0,
        "name": "KN4FCC Stop 1 to AE4S 146.655"
      },
      "geometry": {
        "type": "LineString",
        "coordinates": [
          [
            -84.2,
            30.44
          ],
          [
            -84.31111,
            30.48375
          ]
        ]
      }
    },
    {
      "type": "Feature",
      "properties": {
        "type": "Signal Connector",
        "mobile_unit": "KN4FCC",
        "stop": "1",
        "repeater": "AE4S 443.950",
        "band": "UHF",
        "received": 3.0,
        "sent": 3.0,
        "average": 3.0,
        "name": "KN4FCC Stop 1 to AE4S 443.950"
      },
      "geometry": {
        "type": "LineString",
        "coordinates": [
          [
            -84.2,
            30.44
          ],
          [
            -84.31111,
            30.48375
          ]
        ]
      }
    },
    {
      "type": "Feature",
      "properties": {
        "type": "Signal Connector",
        "mobile_unit": "KN4FCC",
        "stop": "1",
        "repeater": "K4TLH 146.910",
        "band": "VHF",
        "received": 3.0,
        "sent": 2.0,
        "average": 2.5,
        "name": "KN4FCC Stop 1 to K4TLH 146.910"
      },
      "geometry": {
        "type": "LineString",
        "coordinates": [
          [
            -84.272,
            30.432
          ],
          [
            -84.31111,
            30.48375
          ]
        ]
      }
    },
    {
      "type": "Feature",
      "properties": {
        "type": "Signal Connector",
        "mobile_unit": "KN4FCC",
        "stop": "1",
        "repeater": "K4TLH 147.030",
        "band": "VHF",
        "received": 3.0,
        "sent": 3.0,
        "average": 3.0,
        "name": "KN4FCC Stop 1 to K4TLH 147.030"
      },
      "geometry": {
        "type": "LineString",
        "coordinates": [
          [
            -84.23,
            30.58
          ],
          [
            -84.31111,
            30.48375
          ]
        ]
      }
    },
    {
      "type": "Feature",
      "properties": {
        "type": "Mobile Check-In",
        "mobile_unit": "KN4FCC",
        "stop": "2",
        "location": "US27@FL/GA state line",
        "scores": [
          {
            "repeater": "AE4S 146.655",
            "band": "VHF",
            "received": 3.0,
            "sent": 3.0,
            "average": 3.0
          },
          {
            "repeater": "AE4S 443.950",
            "band": "UHF",
            "received": 3.0,
            "sent": 3.0,
            "average": 3.0
          },
          {
            "repeater": "K4TLH 146.910",
            "band": "VHF",
            "received": 3.0,
            "sent": 3.0,
            "average": 3.0
          },
          {
            "repeater": "K4TLH 147.030",
            "band": "VHF",
            "received": 3.0,
            "sent": 3.0,
            "average": 3.0
          },
          {
            "repeater": "K4TLH 444.800",
            "band": "UHF",
            "received": 0.0,
            "sent": 0.0,
            "average": 0.0
          }
        ]
      },
      "geometry": {
        "type": "Point",
        "coordinates": [
          -84.38089,
          30.6899
        ]
      }
    },
    {
      "type": "Feature",
      "properties": {
        "type": "Signal Connector",
        "mobile_unit": "KN4FCC",
        "stop": "2",
        "repeater": "AE4S 146.655",
        "band": "VHF",
        "received": 3.0,
        "sent": 3.0,
        "average": 3.0,
        "name": "KN4FCC Stop 2 to AE4S 146.655"
      },
      "geometry": {
        "type": "LineString",
        "coordinates": [
          [
            -84.2,
            30.44
          ],
          [
            -84.38089,
            30.6899
          ]
        ]
      }
    },
    {
      "type": "Feature",
      "properties": {
        "type": "Signal Connector",
        "mobile_unit": "KN4FCC",
        "stop": "2",
        "repeater": "AE4S 443.950",
        "band": "UHF",
        "received": 3.0,
        "sent": 3.0,
        "average": 3.0,
        "name": "KN4FCC Stop 2 to AE4S 443.950"
      },
      "geometry": {
        "type": "LineString",
        "coordinates": [
          [
            -84.2,
            30.44
          ],
          [
            -84.38089,
            30.6899
          ]
        ]
      }
    },
    {
      "type": "Feature",
      "properties": {
        "type": "Signal Connector",
        "mobile_unit": "KN4FCC",
        "stop": "2",
        "repeater": "K4TLH 146.910",
        "band": "VHF",
        "received": 3.0,
        "sent": 3.0,
        "average": 3.0,
        "name": "KN4FCC Stop 2 to K4TLH 146.910"
      },
      "geometry": {
        "type": "LineString",
        "coordinates": [
          [
            -84.272,
            30.432
          ],
          [
            -84.38089,
            30.6899
          ]
        ]
      }
    },
    {
      "type": "Feature",
      "properties": {
        "type": "Signal Connector",
        "mobile_unit": "KN4FCC",
        "stop": "2",
        "repeater": "K4TLH 147.030",
        "band": "VHF",
        "received": 3.0,
        "sent": 3.0,
        "average": 3.0,
        "name": "KN4FCC Stop 2 to K4TLH 147.030"
      },
      "geometry": {
        "type": "LineString",
        "coordinates": [
          [
            -84.23,
            30.58
          ],
          [
            -84.38089,
            30.6899
          ]
        ]
      }
    },
    {
      "type": "Feature",
      "properties": {
        "type": "Mobile Check-In",
        "mobile_unit": "KN4FCC",
        "stop": "3",
        "location": "US27@Wautauga Rd",
        "scores": [
          {
            "repeater": "AE4S 146.655",
            "band": "VHF",
            "received": 3.0,
            "sent": 3.0,
            "average": 3.0
          },
          {
            "repeater": "AE4S 443.950",
            "band": "UHF",
            "received": 3.0,
            "sent": 3.0,
            "average": 3.0
          },
          {
            "repeater": "K4TLH 146.910",
            "band": "VHF",
            "received": 2.0,
            "sent": 1.0,
            "average": 1.5
          },
          {
            "repeater": "K4TLH 147.030",
            "band": "VHF",
            "received": 2.0,
            "sent": 3.0,
            "average": 2.5
          },
          {
            "repeater": "K4TLH 444.800",
            "band": "UHF",
            "received": 0.0,
            "sent": 0.0,
            "average": 0.0
          }
        ]
      },
      "geometry": {
        "type": "Point",
        "coordinates": [
          -84.46856,
          30.7572
        ]
      }
    },
    {
      "type": "Feature",
      "properties": {
        "type": "Signal Connector",
        "mobile_unit": "KN4FCC",
        "stop": "3",
        "repeater": "AE4S 146.655",
        "band": "VHF",
        "received": 3.0,
        "sent": 3.0,
        "average": 3.0,
        "name": "KN4FCC Stop 3 to AE4S 146.655"
      },
      "geometry": {
        "type": "LineString",
        "coordinates": [
          [
            -84.2,
            30.44
          ],
          [
            -84.46856,
            30.7572
          ]
        ]
      }
    },
    {
      "type": "Feature",
      "properties": {
        "type": "Signal Connector",
        "mobile_unit": "KN4FCC",
        "stop": "3",
        "repeater": "AE4S 443.950",
        "band": "UHF",
        "received": 3.0,
        "sent": 3.0,
        "average": 3.0,
        "name": "KN4FCC Stop 3 to AE4S 443.950"
      },
      "geometry": {
        "type": "LineString",
        "coordinates": [
          [
            -84.2,
            30.44
          ],
          [
            -84.46856,
            30.7572
          ]
        ]
      }
    },
    {
      "type": "Feature",
      "properties": {
        "type": "Signal Connector",
        "mobile_unit": "KN4FCC",
        "stop": "3",
        "repeater": "K4TLH 146.910",
        "band": "VHF",
        "received": 2.0,
        "sent": 1.0,
        "average": 1.5,
        "name": "KN4FCC Stop 3 to K4TLH 146.910"
      },
      "geometry": {
        "type": "LineString",
        "coordinates": [
          [
            -84.272,
            30.432
          ],
          [
            -84.46856,
            30.7572
          ]
        ]
      }
    },
    {
      "type": "Feature",
      "properties": {
        "type": "Signal Connector",
        "mobile_unit": "KN4FCC",
        "stop": "3",
        "repeater": "K4TLH 147.030",
        "band": "VHF",
        "received": 2.0,
        "sent": 3.0,
        "average": 2.5,
        "name": "KN4FCC Stop 3 to K4TLH 147.030"
      },
      "geometry": {
        "type": "LineString",
        "coordinates": [
          [
            -84.23,
            30.58
          ],
          [
            -84.46856,
            30.7572
          ]
        ]
      }
    },
    {
      "type": "Feature",
      "properties": {
        "type": "Mobile Check-In",
        "mobile_unit": "KN4FCC",
        "stop": "4",
        "location": "US27@Bainbridge GA City Limit",
        "scores": [
          {
            "repeater": "AE4S 146.655",
            "band": "VHF",
            "received": 0.0,
            "sent": 0.0,
            "average": 0.0
          },
          {
            "repeater": "AE4S 443.950",
            "band": "UHF",
            "received": 0.0,
            "sent": 0.0,
            "average": 0.0
          },
          {
            "repeater": "K4TLH 146.910",
            "band": "VHF",
            "received": 0.0,
            "sent": 0.0,
            "average": 0.0
          },
          {
            "repeater": "K4TLH 147.030",
            "band": "VHF",
            "received": 0.0,
            "sent": 0.0,
            "average": 0.0
          },
          {
            "repeater": "K4TLH 444.800",
            "band": "UHF",
            "received": 0.0,
            "sent": 0.0,
            "average": 0.0
          }
        ]
      },
      "geometry": {
        "type": "Point",
        "coordinates": [
          -84.56509,
          30.88162
        ]
      }
    },
    {
      "type": "Feature",
      "properties": {
        "type": "Mobile Check-In",
        "mobile_unit": "KO4KKX",
        "stop": "1",
        "location": "FL20@FL65 Hosford FL",
        "scores": [
          {
            "repeater": "AE4S 146.655",
            "band": "VHF",
            "received": 0.0,
            "sent": 0.0,
            "average": 0.0
          },
          {
            "repeater": "AE4S 443.950",
            "band": "UHF",
            "received": 3.0,
            "sent": 3.0,
            "average": 3.0
          },
          {
            "repeater": "K4TLH 146.910",
            "band": "VHF",
            "received": 0.0,
            "sent": 0.0,
            "average": 0.0
          },
          {
            "repeater": "K4TLH 147.030",
            "band": "VHF",
            "received": 0.0,
            "sent": 0.0,
            "average": 0.0
          },
          {
            "repeater": "K4TLH 444.800",
            "band": "UHF",
            "received": 3.0,
            "sent": 3.0,
            "average": 3.0
          }
        ]
      },
      "geometry": {
        "type": "Point",
        "coordinates": [
          -84.79817,
          30.39022
        ]
      }
    },
    {
      "type": "Feature",
      "properties": {
        "type": "Signal Connector",
        "mobile_unit": "KO4KKX",
        "stop": "1",
        "repeater": "AE4S 443.950",
        "band": "UHF",
        "received": 3.0,
        "sent": 3.0,
        "average": 3.0,
        "name": "KO4KKX Stop 1 to AE4S 443.950"
      },
      "geometry": {
        "type": "LineString",
        "coordinates": [
          [
            -84.2,
            30.44
          ],
          [
            -84.79817,
            30.39022
          ]
        ]
      }
    },
    {
      "type": "Feature",
      "properties": {
        "type": "Signal Connector",
        "mobile_unit": "KO4KKX",
        "stop": "1",
        "repeater": "K4TLH 444.800",
        "band": "UHF",
        "received": 3.0,
        "sent": 3.0,
        "average": 3.0,
        "name": "KO4KKX Stop 1 to K4TLH 444.800"
      },
      "geometry": {
        "type": "LineString",
        "coordinates": [
          [
            -84.24,
            30.45
          ],
          [
            -84.79817,
            30.39022
          ]
        ]
      }
    },
    {
      "type": "Feature",
      "properties": {
        "type": "Mobile Check-In",
        "mobile_unit": "KO4KKX",
        "stop": "2",
        "location": "FL20@Bloxham Cutoff",
        "scores": [
          {
            "repeater": "AE4S 146.655",
            "band": "VHF",
            "received": 1.0,
            "sent": 0.0,
            "average": 0.5
          },
          {
            "repeater": "AE4S 443.950",
            "band": "UHF",
            "received": 3.0,
            "sent": 3.0,
            "average": 3.0
          },
          {
            "repeater": "K4TLH 146.910",
            "band": "VHF",
            "received": 0.0,
            "sent": 0.0,
            "average": 0.0
          },
          {
            "repeater": "K4TLH 147.030",
            "band": "VHF",
            "received": 0.0,
            "sent": 0.0,
            "average": 0.0
          },
          {
            "repeater": "K4TLH 444.800",
            "band": "UHF",
            "received": 3.0,
            "sent": 3.0,
            "average": 3.0
          }
        ]
      },
      "geometry": {
        "type": "Point",
        "coordinates": [
          -84.62772,
          30.38932
        ]
      }
    },
    {
      "type": "Feature",
      "properties": {
        "type": "Signal Connector",
        "mobile_unit": "KO4KKX",
        "stop": "2",
        "repeater": "AE4S 443.950",
        "band": "UHF",
        "received": 3.0,
        "sent": 3.0,
        "average": 3.0,
        "name": "KO4KKX Stop 2 to AE4S 443.950"
      },
      "geometry": {
        "type": "LineString",
        "coordinates": [
          [
            -84.2,
            30.44
          ],
          [
            -84.62772,
            30.38932
          ]
        ]
      }
    },
    {
      "type": "Feature",
      "properties": {
        "type": "Signal Connector",
        "mobile_unit": "KO4KKX",
        "stop": "2",
        "repeater": "K4TLH 444.800",
        "band": "UHF",
        "received": 3.0,
        "sent": 3.0,
        "average": 3.0,
        "name": "KO4KKX Stop 2 to K4TLH 444.800"
      },
      "geometry": {
        "type": "LineString",
        "coordinates": [
          [
            -84.24,
            30.45
          ],
          [
            -84.62772,
            30.38932
          ]
        ]
      }
    },
    {
      "type": "Feature",
      "properties": {
        "type": "Mobile Check-In",
        "mobile_unit": "KO4KKX",
        "stop": "3",
        "location": "10703 Bloxham Cutoff Rd",
        "scores": [
          {
            "repeater": "AE4S 146.655",
            "band": "VHF",
            "received": 2.0,
            "sent": 0.0,
            "average": 1.0
          },
          {
            "repeater": "AE4S 443.950",
            "band": "UHF",
            "received": 3.0,
            "sent": 3.0,
            "average": 3.0
          },
          {
            "repeater": "K4TLH 146.910",
            "band": "VHF",
            "received": 0.0,
            "sent": 0.0,
            "average": 0.0
          },
          {
            "repeater": "K4TLH 147.030",
            "band": "VHF",
            "received": 0.0,
            "sent": 0.0,
            "average": 0.0
          },
          {
            "repeater": "K4TLH 444.800",
            "band": "UHF",
            "received": 3.0,
            "sent": 3.0,
            "average": 3.0
          }
        ]
      },
      "geometry": {
        "type": "Point",
        "coordinates": [
          -84.42364,
          30.30538
        ]
      }
    },
    {
      "type": "Feature",
      "properties": {
        "type": "Signal Connector",
        "mobile_unit": "KO4KKX",
        "stop": "3",
        "repeater": "AE4S 146.655",
        "band": "VHF",
        "received": 2.0,
        "sent": 0.0,
        "average": 1.0,
        "name": "KO4KKX Stop 3 to AE4S 146.655"
      },
      "geometry": {
        "type": "LineString",
        "coordinates": [
          [
            -84.2,
            30.44
          ],
          [
            -84.42364,
            30.30538
          ]
        ]
      }
    },
    {
      "type": "Feature",
      "properties": {
        "type": "Signal Connector",
        "mobile_unit": "KO4KKX",
        "stop": "3",
        "repeater": "AE4S 443.950",
        "band": "UHF",
        "received": 3.0,
        "sent": 3.0,
        "average": 3.0,
        "name": "KO4KKX Stop 3 to AE4S 443.950"
      },
      "geometry": {
        "type": "LineString",
        "coordinates": [
          [
            -84.2,
            30.44
          ],
          [
            -84.42364,
            30.30538
          ]
        ]
      }
    },
    {
      "type": "Feature",
      "properties": {
        "type": "Signal Connector",
        "mobile_unit": "KO4KKX",
        "stop": "3",
        "repeater": "K4TLH 444.800",
        "band": "UHF",
        "received": 3.0,
        "sent": 3.0,
        "average": 3.0,
        "name": "KO4KKX Stop 3 to K4TLH 444.800"
      },
      "geometry": {
        "type": "LineString",
        "coordinates": [
          [
            -84.24,
            30.45
          ],
          [
            -84.42364,
            30.30538
          ]
        ]
      }
    },
    {
      "type": "Feature",
      "properties": {
        "type": "Mobile Check-In",
        "mobile_unit": "KO4KKX",
        "stop": "4",
        "location": "US319@Bloxham Cutoff Rd",
        "scores": [
          {
            "repeater": "AE4S 146.655",
            "band": "VHF",
            "received": 2.0,
            "sent": 0.0,
            "average": 1.0
          },
          {
            "repeater": "AE4S 443.950",
            "band": "UHF",
            "received": 3.0,
            "sent": 3.0,
            "average": 3.0
          },
          {
            "repeater": "K4TLH 146.910",
            "band": "VHF",
            "received": 0.0,
            "sent": 0.0,
            "average": 0.0
          },
          {
            "repeater": "K4TLH 147.030",
            "band": "VHF",
            "received": 0.0,
            "sent": 0.0,
            "average": 0.0
          },
          {
            "repeater": "K4TLH 444.800",
            "band": "UHF",
            "received": 3.0,
            "sent": 3.0,
            "average": 3.0
          }
        ]
      },
      "geometry": {
        "type": "Point",
        "coordinates": [
          -84.3625,
          30.26351
        ]
      }
    },
    {
      "type": "Feature",
      "properties": {
        "type": "Signal Connector",
        "mobile_unit": "KO4KKX",
        "stop": "4",
        "repeater": "AE4S 146.655",
        "band": "VHF",
        "received": 2.0,
        "sent": 0.0,
        "average": 1.0,
        "name": "KO4KKX Stop 4 to AE4S 146.655"
      },
      "geometry": {
        "type": "LineString",
        "coordinates": [
          [
            -84.2,
            30.44
          ],
          [
            -84.3625,
            30.26351
          ]
        ]
      }
    },
    {
      "type": "Feature",
      "properties": {
        "type": "Signal Connector",
        "mobile_unit": "KO4KKX",
        "stop": "4",
        "repeater": "AE4S 443.950",
        "band": "UHF",
        "received": 3.0,
        "sent": 3.0,
        "average": 3.0,
        "name": "KO4KKX Stop 4 to AE4S 443.950"
      },
      "geometry": {
        "type": "LineString",
        "coordinates": [
          [
            -84.2,
            30.44
          ],
          [
            -84.3625,
            30.26351
          ]
        ]
      }
    },
    {
      "type": "Feature",
      "properties": {
        "type": "Signal Connector",
        "mobile_unit": "KO4KKX",
        "stop": "4",
        "repeater": "K4TLH 444.800",
        "band": "UHF",
        "received": 3.0,
        "sent": 3.0,
        "average": 3.0,
        "name": "KO4KKX Stop 4 to K4TLH 444.800"
      },
      "geometry": {
        "type": "LineString",
        "coordinates": [
          [
            -84.24,
            30.45
          ],
          [
            -84.3625,
            30.26351
          ]
        ]
      }
    },
    {
      "type": "Feature",
      "properties": {
        "type": "Mobile Check-In",
        "mobile_unit": "KO4KKX",
        "stop": "5",
        "location": "3086 Crawfordville Hwy",
        "scores": [
          {
            "repeater": "AE4S 146.655",
            "band": "VHF",
            "received": 3.0,
            "sent": 0.0,
            "average": 1.5
          },
          {
            "repeater": "AE4S 443.950",
            "band": "UHF",
            "received": 3.0,
            "sent": 3.0,
            "average": 3.0
          },
          {
            "repeater": "K4TLH 146.910",
            "band": "VHF",
            "received": 3.0,
            "sent": 0.0,
            "average": 1.5
          },
          {
            "repeater": "K4TLH 147.030",
            "band": "VHF",
            "received": 3.0,
            "sent": 0.0,
            "average": 1.5
          },
          {
            "repeater": "K4TLH 444.800",
            "band": "UHF",
            "received": 3.0,
            "sent": 3.0,
            "average": 3.0
          }
        ]
      },
      "geometry": {
        "type": "Point",
        "coordinates": [
          -84.37569,
          30.17475
        ]
      }
    },
    {
      "type": "Feature",
      "properties": {
        "type": "Signal Connector",
        "mobile_unit": "KO4KKX",
        "stop": "5",
        "repeater": "AE4S 146.655",
        "band": "VHF",
        "received": 3.0,
        "sent": 0.0,
        "average": 1.5,
        "name": "KO4KKX Stop 5 to AE4S 146.655"
      },
      "geometry": {
        "type": "LineString",
        "coordinates": [
          [
            -84.2,
            30.44
          ],
          [
            -84.37569,
            30.17475
          ]
        ]
      }
    },
    {
      "type": "Feature",
      "properties": {
        "type": "Signal Connector",
        "mobile_unit": "KO4KKX",
        "stop": "5",
        "repeater": "AE4S 443.950",
        "band": "UHF",
        "received": 3.0,
        "sent": 3.0,
        "average": 3.0,
        "name": "KO4KKX Stop 5 to AE4S 443.950"
      },
      "geometry": {
        "type": "LineString",
        "coordinates": [
          [
            -84.2,
            30.44
          ],
          [
            -84.37569,
            30.17475
          ]
        ]
      }
    },
    {
      "type": "Feature",
      "properties": {
        "type": "Signal Connector",
        "mobile_unit": "KO4KKX",
        "stop": "5",
        "repeater": "K4TLH 146.910",
        "band": "VHF",
        "received": 3.0,
        "sent": 0.0,
        "average": 1.5,
        "name": "KO4KKX Stop 5 to K4TLH 146.910"
      },
      "geometry": {
        "type": "LineString",
        "coordinates": [
          [
            -84.272,
            30.432
          ],
          [
            -84.37569,
            30.17475
          ]
        ]
      }
    },
    {
      "type": "Feature",
      "properties": {
        "type": "Signal Connector",
        "mobile_unit": "KO4KKX",
        "stop": "5",
        "repeater": "K4TLH 147.030",
        "band": "VHF",
        "received": 3.0,
        "sent": 0.0,
        "average": 1.5,
        "name": "KO4KKX Stop 5 to K4TLH 147.030"
      },
      "geometry": {
        "type": "LineString",
        "coordinates": [
          [
            -84.23,
            30.58
          ],
          [
            -84.37569,
            30.17475
          ]
        ]
      }
    },
    {
      "type": "Feature",
      "properties": {
        "type": "Signal Connector",
        "mobile_unit": "KO4KKX",
        "stop": "5",
        "repeater": "K4TLH 444.800",
        "band": "UHF",
        "received": 3.0,
        "sent": 3.0,
        "average": 3.0,
        "name": "KO4KKX Stop 5 to K4TLH 444.800"
      },
      "geometry": {
        "type": "LineString",
        "coordinates": [
          [
            -84.24,
            30.45
          ],
          [
            -84.37569,
            30.17475
          ]
        ]
      }
    },
    {
      "type": "Feature",
      "properties": {
        "type": "Mobile Check-In",
        "mobile_unit": "KO4KKX",
        "stop": "6",
        "location": "US319@98",
        "scores": [
          {
            "repeater": "AE4S 146.655",
            "band": "VHF",
            "received": 0.0,
            "sent": 0.0,
            "average": 0.0
          },
          {
            "repeater": "AE4S 443.950",
            "band": "UHF",
            "received": 3.0,
            "sent": 3.0,
            "average": 3.0
          },
          {
            "repeater": "K4TLH 146.910",
            "band": "VHF",
            "received": 0.0,
            "sent": 0.0,
            "average": 0.0
          },
          {
            "repeater": "K4TLH 147.030",
            "band": "VHF",
            "received": 0.0,
            "sent": 0.0,
            "average": 0.0
          },
          {
            "repeater": "K4TLH 444.800",
            "band": "UHF",
            "received": 3.0,
            "sent": 3.0,
            "average": 3.0
          }
        ]
      },
      "geometry": {
        "type": "Point",
        "coordinates": [
          -84.37978,
          30.10464
        ]
      }
    },
    {
      "type": "Feature",
      "properties": {
        "type": "Signal Connector",
        "mobile_unit": "KO4KKX",
        "stop": "6",
        "repeater": "AE4S 443.950",
        "band": "UHF",
        "received": 3.0,
        "sent": 3.0,
        "average": 3.0,
        "name": "KO4KKX Stop 6 to AE4S 443.950"
      },
      "geometry": {
        "type": "LineString",
        "coordinates": [
          [
            -84.2,
            30.44
          ],
          [
            -84.37978,
            30.10464
          ]
        ]
      }
    },
    {
      "type": "Feature",
      "properties": {
        "type": "Signal Connector",
        "mobile_unit": "KO4KKX",
        "stop": "6",
        "repeater": "K4TLH 444.800",
        "band": "UHF",
        "received": 3.0,
        "sent": 3.0,
        "average": 3.0,
        "name": "KO4KKX Stop 6 to K4TLH 444.800"
      },
      "geometry": {
        "type": "LineString",
        "coordinates": [
          [
            -84.24,
            30.45
          ],
          [
            -84.37978,
            30.10464
          ]
        ]
      }
    },
    {
      "type": "Feature",
      "properties": {
        "type": "Mobile Check-In",
        "mobile_unit": "KO4KKX",
        "stop": "7",
        "location": "Woolley Park",
        "scores": [
          {
            "repeater": "AE4S 146.655",
            "band": "VHF",
            "received": 0.0,
            "sent": 0.0,
            "average": 0.0
          },
          {
            "repeater": "AE4S 443.950",
            "band": "UHF",
            "received": 3.0,
            "sent": 3.0,
            "average": 3.0
          },
          {
            "repeater": "K4TLH 146.910",
            "band": "VHF",
            "received": 0.0,
            "sent": 0.0,
            "average": 0.0
          },
          {
            "repeater": "K4TLH 147.030",
            "band": "VHF",
            "received": 0.0,
            "sent": 0.0,
            "average": 0.0
          },
          {
            "repeater": "K4TLH 444.800",
            "band": "UHF",
            "received": 3.0,
            "sent": 3.0,
            "average": 3.0
          }
        ]
      },
      "geometry": {
        "type": "Point",
        "coordinates": [
          -84.38781,
          30.02858
        ]
      }
    },
    {
      "type": "Feature",
      "properties": {
        "type": "Signal Connector",
        "mobile_unit": "KO4KKX",
        "stop": "7",
        "repeater": "AE4S 443.950",
        "band": "UHF",
        "received": 3.0,
        "sent": 3.0,
        "average": 3.0,
        "name": "KO4KKX Stop 7 to AE4S 443.950"
      },
      "geometry": {
        "type": "LineString",
        "coordinates": [
          [
            -84.2,
            30.44
          ],
          [
            -84.38781,
            30.02858
          ]
        ]
      }
    },
    {
      "type": "Feature",
      "properties": {
        "type": "Signal Connector",
        "mobile_unit": "KO4KKX",
        "stop": "7",
        "repeater": "K4TLH 444.800",
        "band": "UHF",
        "received": 3.0,
        "sent": 3.0,
        "average": 3.0,
        "name": "KO4KKX Stop 7 to K4TLH 444.800"
      },
      "geometry": {
        "type": "LineString",
        "coordinates": [
          [
            -84.24,
            30.45
          ],
          [
            -84.38781,
            30.02858
          ]
        ]
      }
    },
    {
      "type": "Feature",
      "properties": {
        "type": "Mobile Check-In",
        "mobile_unit": "KO4KKX",
        "stop": "8",
        "location": "Mashes Sands Beach",
        "scores": [
          {
            "repeater": "AE4S 146.655",
            "band": "VHF",
            "received": 0.0,
            "sent": 0.0,
            "average": 0.0
          },
          {
            "repeater": "AE4S 443.950",
            "band": "UHF",
            "received": 3.0,
            "sent": 3.0,
            "average": 3.0
          },
          {
            "repeater": "K4TLH 146.910",
            "band": "VHF",
            "received": 0.0,
            "sent": 0.0,
            "average": 0.0
          },
          {
            "repeater": "K4TLH 147.030",
            "band": "VHF",
            "received": 0.0,
            "sent": 0.0,
            "average": 0.0
          },
          {
            "repeater": "K4TLH 444.800",
            "band": "UHF",
            "received": 3.0,
            "sent": 3.0,
            "average": 3.0
          }
        ]
      },
      "geometry": {
        "type": "Point",
        "coordinates": [
          -84.34051,
          29.97368
        ]
      }
    },
    {
      "type": "Feature",
      "properties": {
        "type": "Signal Connector",
        "mobile_unit": "KO4KKX",
        "stop": "8",
        "repeater": "AE4S 443.950",
        "band": "UHF",
        "received": 3.0,
        "sent": 3.0,
        "average": 3.0,
        "name": "KO4KKX Stop 8 to AE4S 443.950"
      },
      "geometry": {
        "type": "LineString",
        "coordinates": [
          [
            -84.2,
            30.44
          ],
          [
            -84.34051,
            29.97368
          ]
        ]
      }
    },
    {
      "type": "Feature",
      "properties": {
        "type": "Signal Connector",
        "mobile_unit": "KO4KKX",
        "stop": "8",
        "repeater": "K4TLH 444.800",
        "band": "UHF",
        "received": 3.0,
        "sent": 3.0,
        "average": 3.0,
        "name": "KO4KKX Stop 8 to K4TLH 444.800"
      },
      "geometry": {
        "type": "LineString",
        "coordinates": [
          [
            -84.24,
            30.45
          ],
          [
            -84.34051,
            29.97368
          ]
        ]
      }
    },
    {
      "type": "Feature",
      "properties": {
        "type": "Mobile Check-In",
        "mobile_unit": "KO4QMO",
        "stop": "1",
        "location": "I10@US221",
        "scores": [
          {
            "repeater": "AE4S 146.655",
            "band": "VHF",
            "received": 2.0,
            "sent": 2.0,
            "average": 2.0
          },
          {
            "repeater": "AE4S 443.950",
            "band": "UHF",
            "received": 2.0,
            "sent": 2.0,
            "average": 2.0
          },
          {
            "repeater": "K4TLH 146.910",
            "band": "VHF",
            "received": 1.0,
            "sent": 1.0,
            "average": 1.0
          },
          {
            "repeater": "K4TLH 147.030",
            "band": "VHF",
            "received": 2.0,
            "sent": 2.0,
            "average": 2.0
          },
          {
            "repeater": "K4TLH 444.800",
            "band": "UHF",
            "received": 0.0,
            "sent": 0.0,
            "average": 0.0
          }
        ]
      },
      "geometry": {
        "type": "Point",
        "coordinates": [
          -83.6223,
          30.43293
        ]
      }
    },
    {
      "type": "Feature",
      "properties": {
        "type": "Signal Connector",
        "mobile_unit": "KO4QMO",
        "stop": "1",
        "repeater": "AE4S 146.655",
        "band": "VHF",
        "received": 2.0,
        "sent": 2.0,
        "average": 2.0,
        "name": "KO4QMO Stop 1 to AE4S 146.655"
      },
      "geometry": {
        "type": "LineString",
        "coordinates": [
          [
            -84.2,
            30.44
          ],
          [
            -83.6223,
            30.43293
          ]
        ]
      }
    },
    {
      "type": "Feature",
      "properties": {
        "type": "Signal Connector",
        "mobile_unit": "KO4QMO",
        "stop": "1",
        "repeater": "AE4S 443.950",
        "band": "UHF",
        "received": 2.0,
        "sent": 2.0,
        "average": 2.0,
        "name": "KO4QMO Stop 1 to AE4S 443.950"
      },
      "geometry": {
        "type": "LineString",
        "coordinates": [
          [
            -84.2,
            30.44
          ],
          [
            -83.6223,
            30.43293
          ]
        ]
      }
    },
    {
      "type": "Feature",
      "properties": {
        "type": "Signal Connector",
        "mobile_unit": "KO4QMO",
        "stop": "1",
        "repeater": "K4TLH 146.910",
        "band": "VHF",
        "received": 1.0,
        "sent": 1.0,
        "average": 1.0,
        "name": "KO4QMO Stop 1 to K4TLH 146.910"
      },
      "geometry": {
        "type": "LineString",
        "coordinates": [
          [
            -84.272,
            30.432
          ],
          [
            -83.6223,
            30.43293
          ]
        ]
      }
    },
    {
      "type": "Feature",
      "properties": {
        "type": "Signal Connector",
        "mobile_unit": "KO4QMO",
        "stop": "1",
        "repeater": "K4TLH 147.030",
        "band": "VHF",
        "received": 2.0,
        "sent": 2.0,
        "average": 2.0,
        "name": "KO4QMO Stop 1 to K4TLH 147.030"
      },
      "geometry": {
        "type": "LineString",
        "coordinates": [
          [
            -84.23,
            30.58
          ],
          [
            -83.6223,
            30.43293
          ]
        ]
      }
    },
    {
      "type": "Feature",
      "properties": {
        "type": "Mobile Check-In",
        "mobile_unit": "KO4QMO",
        "stop": "2",
        "location": "Monticello Rest Area",
        "scores": [
          {
            "repeater": "AE4S 146.655",
            "band": "VHF",
            "received": 3.0,
            "sent": 3.0,
            "average": 3.0
          },
          {
            "repeater": "AE4S 443.950",
            "band": "UHF",
            "received": 3.0,
            "sent": 3.0,
            "average": 3.0
          },
          {
            "repeater": "K4TLH 146.910",
            "band": "VHF",
            "received": 3.0,
            "sent": 3.0,
            "average": 3.0
          },
          {
            "repeater": "K4TLH 147.030",
            "band": "VHF",
            "received": 3.0,
            "sent": 3.0,
            "average": 3.0
          },
          {
            "repeater": "K4TLH 444.800",
            "band": "UHF",
            "received": 0.0,
            "sent": 0.0,
            "average": 0.0
          }
        ]
      },
      "geometry": {
        "type": "Point",
        "coordinates": [
          -83.73271,
          30.44555
        ]
      }
    },
    {
      "type": "Feature",
      "properties": {
        "type": "Signal Connector",
        "mobile_unit": "KO4QMO",
        "stop": "2",
        "repeater": "AE4S 146.655",
        "band": "VHF",
        "received": 3.0,
        "sent": 3.0,
        "average": 3.0,
        "name": "KO4QMO Stop 2 to AE4S 146.655"
      },
      "geometry": {
        "type": "LineString",
        "coordinates": [
          [
            -84.2,
            30.44
          ],
          [
            -83.73271,
            30.44555
          ]
        ]
      }
    },
    {
      "type": "Feature",
      "properties": {
        "type": "Signal Connector",
        "mobile_unit": "KO4QMO",
        "stop": "2",
        "repeater": "AE4S 443.950",
        "band": "UHF",
        "received": 3.0,
        "sent": 3.0,
        "average": 3.0,
        "name": "KO4QMO Stop 2 to AE4S 443.950"
      },
      "geometry": {
        "type": "LineString",
        "coordinates": [
          [
            -84.2,
            30.44
          ],
          [
            -83.73271,
            30.44555
          ]
        ]
      }
    },
    {
      "type": "Feature",
      "properties": {
        "type": "Signal Connector",
        "mobile_unit": "KO4QMO",
        "stop": "2",
        "repeater": "K4TLH 146.910",
        "band": "VHF",
        "received": 3.0,
        "sent": 3.0,
        "average": 3.0,
        "name": "KO4QMO Stop 2 to K4TLH 146.910"
      },
      "geometry": {
        "type": "LineString",
        "coordinates": [
          [
            -84.272,
            30.432
          ],
          [
            -83.73271,
            30.44555
          ]
        ]
      }
    },
    {
      "type": "Feature",
      "properties": {
        "type": "Signal Connector",
        "mobile_unit": "KO4QMO",
        "stop": "2",
        "repeater": "K4TLH 147.030",
        "band": "VHF",
        "received": 3.0,
        "sent": 3.0,
        "average": 3.0,
        "name": "KO4QMO Stop 2 to K4TLH 147.030"
      },
      "geometry": {
        "type": "LineString",
        "coordinates": [
          [
            -84.23,
            30.58
          ],
          [
            -83.73271,
            30.44555
          ]
        ]
      }
    },
    {
      "type": "Feature",
      "properties": {
        "type": "Mobile Check-In",
        "mobile_unit": "KO4QMO",
        "stop": "3",
        "location": "I10@CR257",
        "scores": [
          {
            "repeater": "AE4S 146.655",
            "band": "VHF",
            "received": 3.0,
            "sent": 3.0,
            "average": 3.0
          },
          {
            "repeater": "AE4S 443.950",
            "band": "UHF",
            "received": 3.0,
            "sent": 3.0,
            "average": 3.0
          },
          {
            "repeater": "K4TLH 146.910",
            "band": "VHF",
            "received": 2.0,
            "sent": 1.0,
            "average": 1.5
          },
          {
            "repeater": "K4TLH 147.030",
            "band": "VHF",
            "received": 3.0,
            "sent": 3.0,
            "average": 3.0
          },
          {
            "repeater": "K4TLH 444.800",
            "band": "UHF",
            "received": 0.0,
            "sent": 0.0,
            "average": 0.0
          }
        ]
      },
      "geometry": {
        "type": "Point",
        "coordinates": [
          -83.76266,
          30.45532
        ]
      }
    },
    {
      "type": "Feature",
      "properties": {
        "type": "Signal Connector",
        "mobile_unit": "KO4QMO",
        "stop": "3",
        "repeater": "AE4S 146.655",
        "band": "VHF",
        "received": 3.0,
        "sent": 3.0,
        "average": 3.0,
        "name": "KO4QMO Stop 3 to AE4S 146.655"
      },
      "geometry": {
        "type": "LineString",
        "coordinates": [
          [
            -84.2,
            30.44
          ],
          [
            -83.76266,
            30.45532
          ]
        ]
      }
    },
    {
      "type": "Feature",
      "properties": {
        "type": "Signal Connector",
        "mobile_unit": "KO4QMO",
        "stop": "3",
        "repeater": "AE4S 443.950",
        "band": "UHF",
        "received": 3.0,
        "sent": 3.0,
        "average": 3.0,
        "name": "KO4QMO Stop 3 to AE4S 443.950"
      },
      "geometry": {
        "type": "LineString",
        "coordinates": [
          [
            -84.2,
            30.44
          ],
          [
            -83.76266,
            30.45532
          ]
        ]
      }
    },
    {
      "type": "Feature",
      "properties": {
        "type": "Signal Connector",
        "mobile_unit": "KO4QMO",
        "stop": "3",
        "repeater": "K4TLH 146.910",
        "band": "VHF",
        "received": 2.0,
        "sent": 1.0,
        "average": 1.5,
        "name": "KO4QMO Stop 3 to K4TLH 146.910"
      },
      "geometry": {
        "type": "LineString",
        "coordinates": [
          [
            -84.272,
            30.432
          ],
          [
            -83.76266,
            30.45532
          ]
        ]
      }
    },
    {
      "type": "Feature",
      "properties": {
        "type": "Signal Connector",
        "mobile_unit": "KO4QMO",
        "stop": "3",
        "repeater": "K4TLH 147.030",
        "band": "VHF",
        "received": 3.0,
        "sent": 3.0,
        "average": 3.0,
        "name": "KO4QMO Stop 3 to K4TLH 147.030"
      },
      "geometry": {
        "type": "LineString",
        "coordinates": [
          [
            -84.23,
            30.58
          ],
          [
            -83.76266,
            30.45532
          ]
        ]
      }
    },
    {
      "type": "Feature",
      "properties": {
        "type": "Mobile Check-In",
        "mobile_unit": "KO4QMO",
        "stop": "4",
        "location": "I10@SR14",
        "scores": [
          {
            "repeater": "AE4S 146.655",
            "band": "VHF",
            "received": 2.0,
            "sent": 2.0,
            "average": 2.0
          },
          {
            "repeater": "AE4S 443.950",
            "band": "UHF",
            "received": 2.0,
            "sent": 0.0,
            "average": 1.0
          },
          {
            "repeater": "K4TLH 146.910",
            "band": "VHF",
            "received": 0.0,
            "sent": 0.0,
            "average": 0.0
          },
          {
            "repeater": "K4TLH 147.030",
            "band": "VHF",
            "received": 2.0,
            "sent": 2.0,
            "average": 2.0
          },
          {
            "repeater": "K4TLH 444.800",
            "band": "UHF",
            "received": 0.0,
            "sent": 0.0,
            "average": 0.0
          }
        ]
      },
      "geometry": {
        "type": "Point",
        "coordinates": [
          -83.45619,
          30.43117
        ]
      }
    },
    {
      "type": "Feature",
      "properties": {
        "type": "Signal Connector",
        "mobile_unit": "KO4QMO",
        "stop": "4",
        "repeater": "AE4S 146.655",
        "band": "VHF",
        "received": 2.0,
        "sent": 2.0,
        "average": 2.0,
        "name": "KO4QMO Stop 4 to AE4S 146.655"
      },
      "geometry": {
        "type": "LineString",
        "coordinates": [
          [
            -84.2,
            30.44
          ],
          [
            -83.45619,
            30.43117
          ]
        ]
      }
    },
    {
      "type": "Feature",
      "properties": {
        "type": "Signal Connector",
        "mobile_unit": "KO4QMO",
        "stop": "4",
        "repeater": "AE4S 443.950",
        "band": "UHF",
        "received": 2.0,
        "sent": 0.0,
        "average": 1.0,
        "name": "KO4QMO Stop 4 to AE4S 443.950"
      },
      "geometry": {
        "type": "LineString",
        "coordinates": [
          [
            -84.2,
            30.44
          ],
          [
            -83.45619,
            30.43117
          ]
        ]
      }
    },
    {
      "type": "Feature",
      "properties": {
        "type": "Signal Connector",
        "mobile_unit": "KO4QMO",
        "stop": "4",
        "repeater": "K4TLH 147.030",
        "band": "VHF",
        "received": 2.0,
        "sent": 2.0,
        "average": 2.0,
        "name": "KO4QMO Stop 4 to K4TLH 147.030"
      },
      "geometry": {
        "type": "LineString",
        "coordinates": [
          [
            -84.23,
            30.58
          ],
          [
            -83.45619,
            30.43117
          ]
        ]
      }
    },
    {
      "type": "Feature",
      "properties": {
        "type": "Mobile Check-In",
        "mobile_unit": "KO4QMO",
        "stop": "5",
        "location": "I10@CR53",
        "scores": [
          {
            "repeater": "AE4S 146.655",
            "band": "VHF",
            "received": 3.0,
            "sent": 3.0,
            "average": 3.0
          },
          {
            "repeater": "AE4S 443.950",
            "band": "UHF",
            "received": 2.0,
            "sent": 0.0,
            "average": 1.0
          },
          {
            "repeater": "K4TLH 146.910",
            "band": "VHF",
            "received": 0.0,
            "sent": 0.0,
            "average": 0.0
          },
          {
            "repeater": "K4TLH 147.030",
            "band": "VHF",
            "received": 2.0,
            "sent": 1.0,
            "average": 1.5
          },
          {
            "repeater": "K4TLH 444.800",
            "band": "UHF",
            "received": 1.0,
            "sent": 0.0,
            "average": 0.5
          }
        ]
      },
      "geometry": {
        "type": "Point",
        "coordinates": [
          -83.35596,
          30.39521
        ]
      }
    },
    {
      "type": "Feature",
      "properties": {
        "type": "Signal Connector",
        "mobile_unit": "KO4QMO",
        "stop": "5",
        "repeater": "AE4S 146.655",
        "band": "VHF",
        "received": 3.0,
        "sent": 3.0,
        "average": 3.0,
        "name": "KO4QMO Stop 5 to AE4S 146.655"
      },
      "geometry": {
        "type": "LineString",
        "coordinates": [
          [
            -84.2,
            30.44
          ],
          [
            -83.35596,
            30.39521
          ]
        ]
      }
    },
    {
      "type": "Feature",
      "properties": {
        "type": "Signal Connector",
        "mobile_unit": "KO4QMO",
        "stop": "5",
        "repeater": "AE4S 443.950",
        "band": "UHF",
        "received": 2.0,
        "sent": 0.0,
        "average": 1.0,
        "name": "KO4QMO Stop 5 to AE4S 443.950"
      },
      "geometry": {
        "type": "LineString",
        "coordinates": [
          [
            -84.2,
            30.44
          ],
          [
            -83.35596,
            30.39521
          ]
        ]
      }
    },
    {
      "type": "Feature",
      "properties": {
        "type": "Signal Connector",
        "mobile_unit": "KO4QMO",
        "stop": "5",
        "repeater": "K4TLH 147.030",
        "band": "VHF",
        "received": 2.0,
        "sent": 1.0,
        "average": 1.5,
        "name": "KO4QMO Stop 5 to K4TLH 147.030"
      },
      "geometry": {
        "type": "LineString",
        "coordinates": [
          [
            -84.23,
            30.58
          ],
          [
            -83.35596,
            30.39521
          ]
        ]
      }
    },
    {
      "type": "Feature",
      "properties": {
        "type": "Mobile Check-In",
        "mobile_unit": "KO4QMO",
        "stop": "6",
        "location": "I10@CR255",
        "scores": [
          {
            "repeater": "AE4S 146.655",
            "band": "VHF",
            "received": 3.0,
            "sent": 2.0,
            "average": 2.5
          },
          {
            "repeater": "AE4S 443.950",
            "band": "UHF",
            "received": 1.0,
            "sent": 1.0,
            "average": 1.0
          },
          {
            "repeater": "K4TLH 146.910",
            "band": "VHF",
            "received": 1.0,
            "sent": 0.0,
            "average": 0.5
          },
          {
            "repeater": "K4TLH 147.030",
            "band": "VHF",
            "received": 3.0,
            "sent": 1.0,
            "average": 2.0
          },
          {
            "repeater": "K4TLH 444.800",
            "band": "UHF",
            "received": 2.0,
            "sent": 0.0,
            "average": 1.0
          }
        ]
      },
      "geometry": {
        "type": "Point",
        "coordinates": [
          -83.29772,
          30.37987
        ]
      }
    },
    {
      "type": "Feature",
      "properties": {
        "type": "Signal Connector",
        "mobile_unit": "KO4QMO",
        "stop": "6",
        "repeater": "AE4S 146.655",
        "band": "VHF",
        "received": 3.0,
        "sent": 2.0,
        "average": 2.5,
        "name": "KO4QMO Stop 6 to AE4S 146.655"
      },
      "geometry": {
        "type": "LineString",
        "coordinates": [
          [
            -84.2,
            30.44
          ],
          [
            -83.29772,
            30.37987
          ]
        ]
      }
    },
    {
      "type": "Feature",
      "properties": {
        "type": "Signal Connector",
        "mobile_unit": "KO4QMO",
        "stop": "6",
        "repeater": "AE4S 443.950",
        "band": "UHF",
        "received": 1.0,
        "sent": 1.0,
        "average": 1.0,
        "name": "KO4QMO Stop 6 to AE4S 443.950"
      },
      "geometry": {
        "type": "LineString",
        "coordinates": [
          [
            -84.2,
            30.44
          ],
          [
            -83.29772,
            30.37987
          ]
        ]
      }
    },
    {
      "type": "Feature",
      "properties": {
        "type": "Signal Connector",
        "mobile_unit": "KO4QMO",
        "stop": "6",
        "repeater": "K4TLH 147.030",
        "band": "VHF",
        "received": 3.0,
        "sent": 1.0,
        "average": 2.0,
        "name": "KO4QMO Stop 6 to K4TLH 147.030"
      },
      "geometry": {
        "type": "LineString",
        "coordinates": [
          [
            -84.23,
            30.58
          ],
          [
            -83.29772,
            30.37987
          ]
        ]
      }
    },
    {
      "type": "Feature",
      "properties": {
        "type": "Signal Connector",
        "mobile_unit": "KO4QMO",
        "stop": "6",
        "repeater": "K4TLH 444.800",
        "band": "UHF",
        "received": 2.0,
        "sent": 0.0,
        "average": 1.0,
        "name": "KO4QMO Stop 6 to K4TLH 444.800"
      },
      "geometry": {
        "type": "LineString",
        "coordinates": [
          [
            -84.24,
            30.45
          ],
          [
            -83.29772,
            30.37987
          ]
        ]
      }
    },
    {
      "type": "Feature",
      "properties": {
        "type": "Mobile Check-In",
        "mobile_unit": "WA4WES",
        "stop": "1",
        "location": "I10@FL263",
        "scores": [
          {
            "repeater": "AE4S 146.655",
            "band": "VHF",
            "received": 3.0,
            "sent": 3.0,
            "average": 3.0
          },
          {
            "repeater": "AE4S 443.950",
            "band": "UHF",
            "received": 3.0,
            "sent": 3.0,
            "average": 3.0
          },
          {
            "repeater": "K4TLH 146.910",
            "band": "VHF",
            "received": 3.0,
            "sent": 3.0,
            "average": 3.0
          },
          {
            "repeater": "K4TLH 147.030",
            "band": "VHF",
            "received": 3.0,
            "sent": 3.0,
            "average": 3.0
          },
          {
            "repeater": "K4TLH 444.800",
            "band": "UHF",
            "received": 3.0,
            "sent": 3.0,
            "average": 3.0
          }
        ]
      },
      "geometry": {
        "type": "Point",
        "coordinates": [
          -84.36326,
          30.47972
        ]
      }
    },
    {
      "type": "Feature",
      "properties": {
        "type": "Signal Connector",
        "mobile_unit": "WA4WES",
        "stop": "1",
        "repeater": "AE4S 146.655",
        "band": "VHF",
        "received": 3.0,
        "sent": 3.0,
        "average": 3.0,
        "name": "WA4WES Stop 1 to AE4S 146.655"
      },
      "geometry": {
        "type": "LineString",
        "coordinates": [
          [
            -84.2,
            30.44
          ],
          [
            -84.36326,
            30.47972
          ]
        ]
      }
    },
    {
      "type": "Feature",
      "properties": {
        "type": "Signal Connector",
        "mobile_unit": "WA4WES",
        "stop": "1",
        "repeater": "AE4S 443.950",
        "band": "UHF",
        "received": 3.0,
        "sent": 3.0,
        "average": 3.0,
        "name": "WA4WES Stop 1 to AE4S 443.950"
      },
      "geometry": {
        "type": "LineString",
        "coordinates": [
          [
            -84.2,
            30.44
          ],
          [
            -84.36326,
            30.47972
          ]
        ]
      }
    },
    {
      "type": "Feature",
      "properties": {
        "type": "Signal Connector",
        "mobile_unit": "WA4WES",
        "stop": "1",
        "repeater": "K4TLH 146.910",
        "band": "VHF",
        "received": 3.0,
        "sent": 3.0,
        "average": 3.0,
        "name": "WA4WES Stop 1 to K4TLH 146.910"
      },
      "geometry": {
        "type": "LineString",
        "coordinates": [
          [
            -84.272,
            30.432
          ],
          [
            -84.36326,
            30.47972
          ]
        ]
      }
    },
    {
      "type": "Feature",
      "properties": {
        "type": "Signal Connector",
        "mobile_unit": "WA4WES",
        "stop": "1",
        "repeater": "K4TLH 147.030",
        "band": "VHF",
        "received": 3.0,
        "sent": 3.0,
        "average": 3.0,
        "name": "WA4WES Stop 1 to K4TLH 147.030"
      },
      "geometry": {
        "type": "LineString",
        "coordinates": [
          [
            -84.23,
            30.58
          ],
          [
            -84.36326,
            30.47972
          ]
        ]
      }
    },
    {
      "type": "Feature",
      "properties": {
        "type": "Signal Connector",
        "mobile_unit": "WA4WES",
        "stop": "1",
        "repeater": "K4TLH 444.800",
        "band": "UHF",
        "received": 3.0,
        "sent": 3.0,
        "average": 3.0,
        "name": "WA4WES Stop 1 to K4TLH 444.800"
      },
      "geometry": {
        "type": "LineString",
        "coordinates": [
          [
            -84.24,
            30.45
          ],
          [
            -84.36326,
            30.47972
          ]
        ]
      }
    },
    {
      "type": "Feature",
      "properties": {
        "type": "Mobile Check-In",
        "mobile_unit": "WA4WES",
        "stop": "2",
        "location": "I10@US90",
        "scores": [
          {
            "repeater": "AE4S 146.655",
            "band": "VHF",
            "received": 3.0,
            "sent": 3.0,
            "average": 3.0
          },
          {
            "repeater": "AE4S 443.950",
            "band": "UHF",
            "received": 3.0,
            "sent": 3.0,
            "average": 3.0
          },
          {
            "repeater": "K4TLH 146.910",
            "band": "VHF",
            "received": 3.0,
            "sent": 3.0,
            "average": 3.0
          },
          {
            "repeater": "K4TLH 147.030",
            "band": "VHF",
            "received": 3.0,
            "sent": 3.0,
            "average": 3.0
          },
          {
            "repeater": "K4TLH 444.800",
            "band": "UHF",
            "received": 3.0,
            "sent": 3.0,
            "average": 3.0
          }
        ]
      },
      "geometry": {
        "type": "Point",
        "coordinates": [
          -84.42552,
          30.4897
        ]
      }
    },
    {
      "type": "Feature",
      "properties": {
        "type": "Signal Connector",
        "mobile_unit": "WA4WES",
        "stop": "2",
        "repeater": "AE4S 146.655",
        "band": "VHF",
        "received": 3.0,
        "sent": 3.0,
        "average": 3.0,
        "name": "WA4WES Stop 2 to AE4S 146.655"
      },
      "geometry": {
        "type": "LineString",
        "coordinates": [
          [
            -84.2,
            30.44
          ],
          [
            -84.42552,
            30.4897
          ]
        ]
      }
    },
    {
      "type": "Feature",
      "properties": {
        "type": "Signal Connector",
        "mobile_unit": "WA4WES",
        "stop": "2",
        "repeater": "AE4S 443.950",
        "band": "UHF",
        "received": 3.0,
        "sent": 3.0,
        "average": 3.0,
        "name": "WA4WES Stop 2 to AE4S 443.950"
      },
      "geometry": {
        "type": "LineString",
        "coordinates": [
          [
            -84.2,
            30.44
          ],
          [
            -84.42552,
            30.4897
          ]
        ]
      }
    },
    {
      "type": "Feature",
      "properties": {
        "type": "Signal Connector",
        "mobile_unit": "WA4WES",
        "stop": "2",
        "repeater": "K4TLH 146.910",
        "band": "VHF",
        "received": 3.0,
        "sent": 3.0,
        "average": 3.0,
        "name": "WA4WES Stop 2 to K4TLH 146.910"
      },
      "geometry": {
        "type": "LineString",
        "coordinates": [
          [
            -84.272,
            30.432
          ],
          [
            -84.42552,
            30.4897
          ]
        ]
      }
    },
    {
      "type": "Feature",
      "properties": {
        "type": "Signal Connector",
        "mobile_unit": "WA4WES",
        "stop": "2",
        "repeater": "K4TLH 147.030",
        "band": "VHF",
        "received": 3.0,
        "sent": 3.0,
        "average": 3.0,
        "name": "WA4WES Stop 2 to K4TLH 147.030"
      },
      "geometry": {
        "type": "LineString",
        "coordinates": [
          [
            -84.23,
            30.58
          ],
          [
            -84.42552,
            30.4897
          ]
        ]
      }
    },
    {
      "type": "Feature",
      "properties": {
        "type": "Signal Connector",
        "mobile_unit": "WA4WES",
        "stop": "2",
        "repeater": "K4TLH 444.800",
        "band": "UHF",
        "received": 3.0,
        "sent": 3.0,
        "average": 3.0,
        "name": "WA4WES Stop 2 to K4TLH 444.800"
      },
      "geometry": {
        "type": "LineString",
        "coordinates": [
          [
            -84.24,
            30.45
          ],
          [
            -84.42552,
            30.4897
          ]
        ]
      }
    },
    {
      "type": "Feature",
      "properties": {
        "type": "Mobile Check-In",
        "mobile_unit": "WA4WES",
        "stop": "3",
        "location": "I10@FL267",
        "scores": [
          {
            "repeater": "AE4S 146.655",
            "band": "VHF",
            "received": 2.0,
            "sent": 3.0,
            "average": 2.5
          },
          {
            "repeater": "AE4S 443.950",
            "band": "UHF",
            "received": 3.0,
            "sent": 3.0,
            "average": 3.0
          },
          {
            "repeater": "K4TLH 146.910",
            "band": "VHF",
            "received": 3.0,
            "sent": 2.0,
            "average": 2.5
          },
          {
            "repeater": "K4TLH 147.030",
            "band": "VHF",
            "received": 1.0,
            "sent": 2.0,
            "average": 1.5
          },
          {
            "repeater": "K4TLH 444.800",
            "band": "UHF",
            "received": 3.0,
            "sent": 3.0,
            "average": 3.0
          }
        ]
      },
      "geometry": {
        "type": "Point",
        "coordinates": [
          -84.59506,
          30.53812
        ]
      }
    },
    {
      "type": "Feature",
      "properties": {
        "type": "Signal Connector",
        "mobile_unit": "WA4WES",
        "stop": "3",
        "repeater": "AE4S 146.655",
        "band": "VHF",
        "received": 2.0,
        "sent": 3.0,
        "average": 2.5,
        "name": "WA4WES Stop 3 to AE4S 146.655"
      },
      "geometry": {
        "type": "LineString",
        "coordinates": [
          [
            -84.2,
            30.44
          ],
          [
            -84.59506,
            30.53812
          ]
        ]
      }
    },
    {
      "type": "Feature",
      "properties": {
        "type": "Signal Connector",
        "mobile_unit": "WA4WES",
        "stop": "3",
        "repeater": "AE4S 443.950",
        "band": "UHF",
        "received": 3.0,
        "sent": 3.0,
        "average": 3.0,
        "name": "WA4WES Stop 3 to AE4S 443.950"
      },
      "geometry": {
        "type": "LineString",
        "coordinates": [
          [
            -84.2,
            30.44
          ],
          [
            -84.59506,
            30.53812
          ]
        ]
      }
    },
    {
      "type": "Feature",
      "properties": {
        "type": "Signal Connector",
        "mobile_unit": "WA4WES",
        "stop": "3",
        "repeater": "K4TLH 146.910",
        "band": "VHF",
        "received": 3.0,
        "sent": 2.0,
        "average": 2.5,
        "name": "WA4WES Stop 3 to K4TLH 146.910"
      },
      "geometry": {
        "type": "LineString",
        "coordinates": [
          [
            -84.272,
            30.432
          ],
          [
            -84.59506,
            30.53812
          ]
        ]
      }
    },
    {
      "type": "Feature",
      "properties": {
        "type": "Signal Connector",
        "mobile_unit": "WA4WES",
        "stop": "3",
        "repeater": "K4TLH 147.030",
        "band": "VHF",
        "received": 1.0,
        "sent": 2.0,
        "average": 1.5,
        "name": "WA4WES Stop 3 to K4TLH 147.030"
      },
      "geometry": {
        "type": "LineString",
        "coordinates": [
          [
            -84.23,
            30.58
          ],
          [
            -84.59506,
            30.53812
          ]
        ]
      }
    },
    {
      "type": "Feature",
      "properties": {
        "type": "Signal Connector",
        "mobile_unit": "WA4WES",
        "stop": "3",
        "repeater": "K4TLH 444.800",
        "band": "UHF",
        "received": 3.0,
        "sent": 3.0,
        "average": 3.0,
        "name": "WA4WES Stop 3 to K4TLH 444.800"
      },
      "geometry": {
        "type": "LineString",
        "coordinates": [
          [
            -84.24,
            30.45
          ],
          [
            -84.59506,
            30.53812
          ]
        ]
      }
    },
    {
      "type": "Feature",
      "properties": {
        "type": "Mobile Check-In",
        "mobile_unit": "WA4WES",
        "stop": "4",
        "location": "I10@Rest Area East of Apalachicola River",
        "scores": [
          {
            "repeater": "AE4S 146.655",
            "band": "VHF",
            "received": 3.0,
            "sent": 2.0,
            "average": 2.5
          },
          {
            "repeater": "AE4S 443.950",
            "band": "UHF",
            "received": 0.0,
            "sent": 0.0,
            "average": 0.0
          },
          {
            "repeater": "K4TLH 146.910",
            "band": "VHF",
            "received": 3.0,
            "sent": 0.0,
            "average": 1.5
          },
          {
            "repeater": "K4TLH 147.030",
            "band": "VHF",
            "received": 0.0,
            "sent": 0.0,
            "average": 0.0
          },
          {
            "repeater": "K4TLH 444.800",
            "band": "UHF",
            "received": 0.0,
            "sent": null,
            "average": 0.0
          }
        ]
      },
      "geometry": {
        "type": "Point",
        "coordinates": [
          -84.89228,
          30.62662
        ]
      }
    },
    {
      "type": "Feature",
      "properties": {
        "type": "Signal Connector",
        "mobile_unit": "WA4WES",
        "stop": "4",
        "repeater": "AE4S 146.655",
        "band": "VHF",
        "received": 3.0,
        "sent": 2.0,
        "average": 2.5,
        "name": "WA4WES Stop 4 to AE4S 146.655"
      },
      "geometry": {
        "type": "LineString",
        "coordinates": [
          [
            -84.2,
            30.44
          ],
          [
            -84.89228,
            30.62662
          ]
        ]
      }
    },
    {
      "type": "Feature",
      "properties": {
        "type": "Signal Connector",
        "mobile_unit": "WA4WES",
        "stop": "4",
        "repeater": "K4TLH 146.910",
        "band": "VHF",
        "received": 3.0,
        "sent": 0.0,
        "average": 1.5,
        "name": "WA4WES Stop 4 to K4TLH 146.910"
      },
      "geometry": {
        "type": "LineString",
        "coordinates": [
          [
            -84.272,
            30.432
          ],
          [
            -84.89228,
            30.62662
          ]
        ]
      }
    }
  ]
}